[{"OBJECT_NAME":"STARLINK-5177","OBJECT_ID":"2022-136AR","EPOCH":"2026-03-09T22:38:23.289504","MEAN_MOTION":15.08695652,"ECCENTRICITY":0.00029211,"INCLINATION":53.2197,"RA_OF_ASC_NODE":332.8901,"ARG_OF_PERICENTER":104.7238,"MEAN_ANOMALY":255.4078,"EPHEMERIS_TYPE":0,"CLASSIFICATION_TYPE":"U","NORAD_CAT_ID":54090,"ELEMENT_SET_NO":999,"REV_AT_EPOCH":18702,"BSTAR":0.0018890681,"MEAN_MOTION_DOT":0.00029787,"MEAN_MOTION_DDOT":0},{"OBJECT_NAME":"RAPIDEYE 2","OBJECT_ID":"2008-040A","EPOCH":"2026-03-09T16:28:01.823808","MEAN_MOTION":15.04945954,"ECCENTRICITY":0.00177122,"INCLINATION":97.4373,"RA_OF_ASC_NODE":102.2221,"ARG_OF_PERICENTER":194.2548,"MEAN_ANOMALY":165.8182,"EPHEMERIS_TYPE":0,"CLASSIFICATION_TYPE":"U","NORAD_CAT_ID":33312,"ELEMENT_SET_NO":999,"REV_AT_EPOCH":95100,"BSTAR":0.0001818221,"MEAN_MOTION_DOT":2.525e-5,"MEAN_MOTION_DDOT":0}]
